{"type": "FeatureCollection", "features": [ {"type": "Feature", "properties": {"norad_id": 37533, "name": "COSMOS 2251 DEB", "group": "cosmos-2251-debris", "lat": 41.488503649715824, "lon": -26.601682889064115, "alt_km": 836.6414251359511, "timestamp": "2025-12-26T05:31:12.904262+00:00", "meta": {"OBJECT_NAME": "COSMOS 2251 DEB", "OBJECT_ID": "1993-036BNN", "EPOCH": "2025-12-17T06:38:38.162976", "MEAN_MOTION": 14.12190824, "ECCENTRICITY": 0.0157786, "INCLINATION": 74.0692, "RA_OF_ASC_NODE": 183.8069, "ARG_OF_PERICENTER": 239.4795, "MEAN_ANOMALY": 119.0691, "EPHEMERIS_TYPE": 0, "CLASSIFICATION_TYPE": "U", "NORAD_CAT_ID": 37533, "ELEMENT_SET_NO": 999, "REV_AT_EPOCH": 62985, "BSTAR": 0.0010470743, "MEAN_MOTION_DOT": 2.138e-05, "MEAN_MOTION_DDOT": 0}, "tle": {"line1": "1 37533U 93036BNN 25351.27683059  .00002138  00000+0  10471-2 0  9996", "line2": "2 37533  74.0692 183.8069 0157786 239.4795 119.0691 14.12190824629858"}}, "geometry": {"type": "Point", "coordinates": [-26.601682889064115, 41.488503649715824]}}, {"type": "Feature", "properties": {"norad_id": 37535, "name": "COSMOS 2251 DEB", "group": "cosmos-2251-debris", "lat": 32.023570567588216, "lon": -142.52160031099615, "alt_km": 680.5598455195413, "timestamp": "2025-12-26T05:31:12.904272+00:00", "meta": {"OBJECT_NAME": "COSMOS 2251 DEB", "OBJECT_ID": "1993-036BNQ", "EPOCH": "2025-12-25T04:27:00.887616", "MEAN_MOTION": 14.58534056, "ECCENTRICITY": 0.00271074, "INCLINATION": 74.0232, "RA_OF_ASC_NODE": 49.7901, "ARG_OF_PERICENTER": 186.722, "MEAN_ANOMALY": 237.3194, "EPHEMERIS_TYPE": 0, "CLASSIFICATION_TYPE": "U", "NORAD_CAT_ID": 37535, "ELEMENT_SET_NO": 999, "REV_AT_EPOCH": 85506, "BSTAR": 0.00068521573, "MEAN_MOTION_DOT": 3.173e-05, "MEAN_MOTION_DDOT": 0}, "tle": {"line1": "1 37535U 93036BNQ 25359.18542694  .00003173  00000+0  68522-3 0  9996", "line2": "2 37535  74.0232  49.7901 0027107 186.7220 237.3194 14.58534056855060"}}, "geometry": {"type": "Point", "coordinates": [-142.52160031099615, 32.023570567588216]}}, {"type": "Feature", "properties": {"norad_id": 37537, "name": "COSMOS 2251 DEB", "group": "cosmos-2251-debris", "lat": 37.01398135845735, "lon": -107.24991383971117, "alt_km": 730.0467891844683, "timestamp": "2025-12-26T05:31:12.904282+00:00", "meta": {"OBJECT_NAME": "COSMOS 2251 DEB", "OBJECT_ID": "1993-036BNS", "EPOCH": "2025-12-23T00:30:43.344864", "MEAN_MOTION": 14.37504728, "ECCENTRICITY": 0.00507516, "INCLINATION": 74.0118, "RA_OF_ASC_NODE": 246.178, "ARG_OF_PERICENTER": 23.6925, "MEAN_ANOMALY": 336.6549, "EPHEMERIS_TYPE": 0, "CLASSIFICATION_TYPE": "U", "NORAD_CAT_ID": 37537, "ELEMENT_SET_NO": 999, "REV_AT_EPOCH": 85181, "BSTAR": 0.00019410826, "MEAN_MOTION_DOT": 5.64e-06, "MEAN_MOTION_DDOT": 0}, "tle": {"line1": "1 37537U 93036BNS 25357.02133501  .00000564  00000+0  19411-3 0  9996", "line2": "2 37537  74.0118 246.1780 0050751  23.6925 336.6549 14.37504728851811"}}, "geometry": {"type": "Point", "coordinates": [-107.24991383971117, 37.01398135845735]}}, {"type": "Feature", "properties": {"norad_id": 37546, "name": "COSMOS 2251 DEB", "group": "cosmos-2251-debris", "lat": 53.090712452313895, "lon": 93.80412111608116, "alt_km": 617.0634886230091, "timestamp": "2025-12-26T05:31:12.904292+00:00", "meta": {"OBJECT_NAME": "COSMOS 2251 DEB", "OBJECT_ID": "1993-036BPB", "EPOCH": "2025-12-25T04:56:56.302944", "MEAN_MOTION": 14.80966305, "ECCENTRICITY": 0.0005402, "INCLINATION": 74.0212, "RA_OF_ASC_NODE": 73.3979, "ARG_OF_PERICENTER": 64.6896, "MEAN_ANOMALY": 295.4839, "EPHEMERIS_TYPE": 0, "CLASSIFICATION_TYPE": "U", "NORAD_CAT_ID": 37546, "ELEMENT_SET_NO": 999, "REV_AT_EPOCH": 66072, "BSTAR": 0.0024894, "MEAN_MOTION_DOT": 0.000193, "MEAN_MOTION_DDOT": 0}, "tle": {"line1": "1 37546U 93036BPB 25359.20620721  .00019300  00000+0  24894-2 0  9991", "line2": "2 37546  74.0212  73.3979 0005402  64.6896 295.4839 14.80966305660724"}}, "geometry": {"type": "Point", "coordinates": [93.80412111608116, 53.090712452313895]}}, {"type": "Feature", "properties": {"norad_id": 37959, "name": "COSMOS 2251 DEB", "group": "cosmos-2251-debris", "lat": -52.2826565295064, "lon": -126.99788112710579, "alt_km": 687.7386324458857, "timestamp": "2025-12-26T05:31:12.904302+00:00", "meta": {"OBJECT_NAME": "COSMOS 2251 DEB", "OBJECT_ID": "1993-036BPJ", "EPOCH": "2025-12-22T13:53:21.860736", "MEAN_MOTION": 14.58199594, "ECCENTRICITY": 0.00571783, "INCLINATION": 74.0084, "RA_OF_ASC_NODE": 38.1929, "ARG_OF_PERICENTER": 178.962, "MEAN_ANOMALY": 335.9914, "EPHEMERIS_TYPE": 0, "CLASSIFICATION_TYPE": "U", "NORAD_CAT_ID": 37959, "ELEMENT_SET_NO": 999, "REV_AT_EPOCH": 80270, "BSTAR": 0.00056222313, "MEAN_MOTION_DOT": 2.624e-05, "MEAN_MOTION_DDOT": 0}, "tle": {"line1": "1 37959U 93036BPJ 25356.57872524  .00002624  00000+0  56222-3 0  9998", "line2": "2 37959  74.0084  38.1929 0057178 178.9620 335.9914 14.58199594802707"}}, "geometry": {"type": "Point", "coordinates": [-126.99788112710579, -52.2826565295064]}}, {"type": "Feature", "properties": {"norad_id": 37960, "name": "COSMOS 2251 DEB", "group": "cosmos-2251-debris", "lat": 7.1431686228112685, "lon": -18.801028180009386, "alt_km": 689.4257544708535, "timestamp": "2025-12-26T05:31:12.904316+00:00", "meta": {"OBJECT_NAME": "COSMOS 2251 DEB", "OBJECT_ID": "1993-036BPK", "EPOCH": "2025-12-23T05:04:36.493536", "MEAN_MOTION": 14.07887566, "ECCENTRICITY": 0.02481157, "INCLINATION": 74.0591, "RA_OF_ASC_NODE": 168.5402, "ARG_OF_PERICENTER": 184.7073, "MEAN_ANOMALY": 175.1734, "EPHEMERIS_TYPE": 0, "CLASSIFICATION_TYPE": "U", "NORAD_CAT_ID": 37960, "ELEMENT_SET_NO": 999, "REV_AT_EPOCH": 77553, "BSTAR": 0.0007466601, "MEAN_MOTION_DOT": 1.655e-05, "MEAN_MOTION_DDOT": 0}, "tle": {"line1": "1 37960U 93036BPK 25357.21153349  .00001655  00000+0  74666-3 0  9994", "line2": "2 37960  74.0591 168.5402 0248115 184.7073 175.1734 14.07887566775537"}}, "geometry": {"type": "Point", "coordinates": [-18.801028180009386, 7.1431686228112685]}}, {"type": "Feature", "properties": {"norad_id": 37961, "name": "COSMOS 2251 DEB", "group": "cosmos-2251-debris", "lat": -61.16003117731055, "lon": 80.1496766290285, "alt_km": 713.493199302804, "timestamp": "2025-12-26T05:31:12.904326+00:00", "meta": {"OBJECT_NAME": "COSMOS 2251 DEB", "OBJECT_ID": "1993-036BPL", "EPOCH": "2025-12-13T03:18:27.462240", "MEAN_MOTION": 14.57979799, "ECCENTRICITY": 0.00406759, "INCLINATION": 74.0407, "RA_OF_ASC_NODE": 136.3488, "ARG_OF_PERICENTER": 216.8805, "MEAN_ANOMALY": 142.9561, "EPHEMERIS_TYPE": 0, "CLASSIFICATION_TYPE": "U", "NORAD_CAT_ID": 37961, "ELEMENT_SET_NO": 999, "REV_AT_EPOCH": 80071, "BSTAR": 0.001729191, "MEAN_MOTION_DOT": 8.011e-05, "MEAN_MOTION_DDOT": 0}, "tle": {"line1": "1 37961U 93036BPL 25347.13781785  .00008011  00000+0  17292-2 0  9990", "line2": "2 37961  74.0407 136.3488 0040675 216.8805 142.9561 14.57979799800716"}}, "geometry": {"type": "Point", "coordinates": [80.1496766290285, -61.16003117731055]}}, {"type": "Feature", "properties": {"norad_id": 37966, "name": "COSMOS 2251 DEB", "group": "cosmos-2251-debris", "lat": -23.833116733934347, "lon": 29.758772672704215, "alt_km": 532.107631510291, "timestamp": "2025-12-26T05:31:12.904336+00:00", "meta": {"OBJECT_NAME": "COSMOS 2251 DEB", "OBJECT_ID": "1993-036BPR", "EPOCH": "2025-12-13T08:51:38.421216", "MEAN_MOTION": 15.12745257, "ECCENTRICITY": 0.0008827, "INCLINATION": 73.9781, "RA_OF_ASC_NODE": 229.2381, "ARG_OF_PERICENTER": 105.5668, "MEAN_ANOMALY": 254.6501, "EPHEMERIS_TYPE": 0, "CLASSIFICATION_TYPE": "U", "NORAD_CAT_ID": 37966, "ELEMENT_SET_NO": 999, "REV_AT_EPOCH": 85352, "BSTAR": 0.0033929269, "MEAN_MOTION_DOT": 0.00060007, "MEAN_MOTION_DDOT": 0}, "tle": {"line1": "1 37966U 93036BPR 25347.36919469  .00060007  00000+0  33929-2 0  9990", "line2": "2 37966  73.9781 229.2381 0008827 105.5668 254.6501 15.12745257853526"}}, "geometry": {"type": "Point", "coordinates": [29.758772672704215, -23.833116733934347]}}, {"type": "Feature", "properties": {"norad_id": 37967, "name": "COSMOS 2251 DEB", "group": "cosmos-2251-debris", "lat": -59.39073410988506, "lon": 83.4107480101126, "alt_km": 690.3218878024927, "timestamp": "2025-12-26T05:31:12.904345+00:00", "meta": {"OBJECT_NAME": "COSMOS 2251 DEB", "OBJECT_ID": "1993-036BPS", "EPOCH": "2025-12-25T14:48:50.438880", "MEAN_MOTION": 14.4066325, "ECCENTRICITY": 0.0151034, "INCLINATION": 74.0157, "RA_OF_ASC_NODE": 113.525, "ARG_OF_PERICENTER": 249.5941, "MEAN_ANOMALY": 108.8939, "EPHEMERIS_TYPE": 0, "CLASSIFICATION_TYPE": "U", "NORAD_CAT_ID": 37967, "ELEMENT_SET_NO": 999, "REV_AT_EPOCH": 64921, "BSTAR": 0.0020469, "MEAN_MOTION_DOT": 7.459e-05, "MEAN_MOTION_DDOT": 0}, "tle": {"line1": "1 37967U 93036BPS 25359.61725045  .00007459  00000+0  20469-2 0  9994", "line2": "2 37967  74.0157 113.5250 0151034 249.5941 108.8939 14.40663250649214"}}, "geometry": {"type": "Point", "coordinates": [83.4107480101126, -59.39073410988506]}}, {"type": "Feature", "properties": {"norad_id": 37968, "name": "COSMOS 2251 DEB", "group": "cosmos-2251-debris", "lat": 49.71733031180708, "lon": 43.86164715779988, "alt_km": 596.0518062563979, "timestamp": "2025-12-26T05:31:12.904355+00:00", "meta": {"OBJECT_NAME": "COSMOS 2251 DEB", "OBJECT_ID": "1993-036BPT", "EPOCH": "2025-12-21T00:10:33.901248", "MEAN_MOTION": 15.00806785, "ECCENTRICITY": 0.00805513, "INCLINATION": 74.0006, "RA_OF_ASC_NODE": 254.2977, "ARG_OF_PERICENTER": 7.8808, "MEAN_ANOMALY": 352.3622, "EPHEMERIS_TYPE": 0, "CLASSIFICATION_TYPE": "U", "NORAD_CAT_ID": 37968, "ELEMENT_SET_NO": 999, "REV_AT_EPOCH": 60343, "BSTAR": 0.00064941669, "MEAN_MOTION_DOT": 8.807e-05, "MEAN_MOTION_DDOT": 0}, "tle": {"line1": "1 37968U 93036BPT 25355.00733682  .00008807  00000+0  64942-3 0  9993", "line2": "2 37968  74.0006 254.2977 0080551   7.8808 352.3622 15.00806785603437"}}, "geometry": {"type": "Point", "coordinates": [43.86164715779988, 49.71733031180708]}}]}